{
    "links": {
        "self": "http://www.neowsapp.com/rest/v1/neo/3277464?api_key=iIulBulltgU6a56xZRHN4H3l9WmuAYTsLGpBGhQ2"
    },
    "id": "3277464",
    "neo_reference_id": "3277464",
    "name": "(2005 HC4)",
    "designation": "2005 HC4",
    "nasa_jpl_url": "http://ssd.jpl.nasa.gov/sbdb.cgi?sstr=3277464",
    "absolute_magnitude_h": 20.7,
    "estimated_diameter": {
        "kilometers": {
            "estimated_diameter_min": 0.1925550782,
            "estimated_diameter_max": 0.4305662442
        },
        "meters": {
            "estimated_diameter_min": 192.5550781879,
            "estimated_diameter_max": 430.566244241
        },
        "miles": {
            "estimated_diameter_min": 0.1196481415,
            "estimated_diameter_max": 0.2675413778
        },
        "feet": {
            "estimated_diameter_min": 631.7424027221,
            "estimated_diameter_max": 1412.6189567557
        }
    },
    "is_potentially_hazardous_asteroid": false,
    "close_approach_data": [
        {
            "close_approach_date": "2005-05-09",
            "close_approach_date_full": "2005-May-09 00:58",
            "epoch_date_close_approach": 1115600280000,
            "relative_velocity": {
                "kilometers_per_second": "32.4587085679",
                "kilometers_per_hour": "116851.3508443918",
                "miles_per_hour": "72606.8851955055"
            },
            "miss_distance": {
                "astronomical": "0.2523731189",
                "lunar": "98.1731432521",
                "kilometers": "37754481.032696743",
                "miles": "23459546.6800833334"
            },
            "orbiting_body": "Earth"
        },
        {
            "close_approach_date": "2005-07-06",
            "close_approach_date_full": "2005-Jul-06 13:38",
            "epoch_date_close_approach": 1120657080000,
            "relative_velocity": {
                "kilometers_per_second": "52.3344714726",
                "kilometers_per_hour": "188404.0973015285",
                "miles_per_hour": "117066.9792371636"
            },
            "miss_distance": {
                "astronomical": "0.1371997632",
                "lunar": "53.3707078848",
                "kilometers": "20524792.339224384",
                "miles": "12753514.5712651392"
            },
            "orbiting_body": "Venus"
        }
    ],
    "orbital_data": {
        "orbit_id": "14",
        "orbit_determination_date": "2017-04-06 09:11:02",
        "first_observation_date": "2005-04-30",
        "last_observation_date": "2005-05-11",
        "data_arc_in_days": 11,
        "observations_used": 51,
        "orbit_uncertainty": "9",
        "minimum_orbit_intersection": ".0615315",
        "jupiter_tisserand_invariant": "3.177",
        "epoch_osculation": "2453493.5",
        "eccentricity": ".9613212182807431",
        "semi_major_axis": "1.822982237546105",
        "inclination": "8.40395384386056",
        "ascending_node_longitude": "63.771369995276",
        "orbital_period": "899.0256495089418",
        "perihelion_distance": ".07051073204412826",
        "perihelion_argument": "309.0463722016108",
        "aphelion_distance": "3.575453743048081",
        "perihelion_time": "2453539.806542504220",
        "mean_anomaly": "341.4573084643083",
        "mean_motion": ".4004335139899914",
        "equinox": "J2000",
        "orbit_class": {
            "orbit_class_type": "APO",
            "orbit_class_description": "Near-Earth asteroid orbits which cross the Earth’s orbit similar to that of 1862 Apollo",
            "orbit_class_range": "a (semi-major axis) > 1.0 AU; q (perihelion) < 1.017 AU"
        }
    },
    "is_sentry_object": false
}